STARLINK-36659          
1 67833U 26033N   26077.58334491 -.01911135  00000+0 -29436-1 0  9997
2 67833  43.0000 217.5859 0001708 276.2642 144.3251 15.56795097  6097
STARLINK-36655          
1 67834U 26033P   26077.58334491 -.00592493  00000+0 -10742-1 0  9999
2 67834  42.9999 217.8993 0001691 286.6816   7.2092 15.50933868  6098
STARLINK-36657          
1 67835U 26033Q   26077.58334491 -.01921784  00000+0 -31147-1 0  9992
2 67835  43.0002 217.6381 0001698 276.3787 122.7775 15.55458453  6093
STARLINK-36650          
1 67836U 26033R   26077.58334491  .00050192  00000+0  85643-3 0  9998
2 67836  42.9999 218.1676 0000956 277.1146 267.9755 15.50561547  6098
STARLINK-36649          
1 67837U 26033S   26077.58334491  .00040737  00000+0  69864-3 0  9990
2 67837  42.9997 217.8937 0000938 280.1294  15.2630 15.50496731  6099
STARLINK-36654          
1 67838U 26033T   26077.58334491  .00035678  00000+0  61216-3 0  9992
2 67838  43.0002 218.0170 0001545 254.4678 350.6031 15.50534692  6096
STARLINK-36652          
1 67839U 26033U   26077.58334491  .00027469  00000+0  47300-3 0  9990
2 67839  42.9999 218.1210 0001556 279.6787 283.6004 15.50543829  6095
STARLINK-36651          
1 67840U 26033V   26077.58334491  .00031652  00000+0  54399-3 0  9997
2 67840  43.0000 218.0080 0002411 286.6000 322.1840 15.50535060  6098
STARLINK-36656          
1 67841U 26033W   26077.58334491  .00027704  00000+0  47742-3 0  9995
2 67841  42.9999 217.9240 0001722 296.5300 346.3594 15.50516925  6090
STARLINK-36653          
1 67842U 26033X   26077.58334491  .00037123  00000+0  63632-3 0  9998
2 67842  43.0001 217.9804 0001573 266.8932 353.0375 15.50547151  6095
STARLINK-36589          
1 67843U 26033Y   26077.58334491  .00027689  00000+0  47677-3 0  9996
2 67843  42.9998 217.8993 0001869 271.3893  21.1766 15.50540178  6091
STARLINK-36598          
1 67844U 26033Z   26077.58334491  .00036015  00000+0  61686-3 0  9996
2 67844  42.9999 218.1048 0001902 312.1952 257.3639 15.50580244  6096
