CCSDS_OMM_VERS = 2.0
CREATION_DATE  = 
ORIGINATOR     = 

OBJECT_NAME    = STARLINK-36659
OBJECT_ID      = 2026-033N
CENTER_NAME    = EARTH
REF_FRAME      = TEME
TIME_SYSTEM    = UTC
MEAN_ELEMENT_THEORY = SGP/SGP4

EPOCH          = 2026-03-18T14:00:01.000224
MEAN_MOTION    = 15.56795097
ECCENTRICITY   = .00017084
INCLINATION    = 43.0000
RA_OF_ASC_NODE = 217.5859
ARG_OF_PERICENTER = 276.2642
MEAN_ANOMALY   = 144.3251

EPHEMERIS_TYPE = 0
CLASSIFICATION_TYPE = U
NORAD_CAT_ID   = 67833
ELEMENT_SET_NO = 999
REV_AT_EPOCH   = 609
BSTAR          = -.29436442E-1
MEAN_MOTION_DOT = -.1911135E-1
MEAN_MOTION_DDOT = 0

CCSDS_OMM_VERS = 2.0
CREATION_DATE  = 
ORIGINATOR     = 

OBJECT_NAME    = STARLINK-36655
OBJECT_ID      = 2026-033P
CENTER_NAME    = EARTH
REF_FRAME      = TEME
TIME_SYSTEM    = UTC
MEAN_ELEMENT_THEORY = SGP/SGP4

EPOCH          = 2026-03-18T14:00:01.000224
MEAN_MOTION    = 15.50933868
ECCENTRICITY   = .00016911
INCLINATION    = 42.9999
RA_OF_ASC_NODE = 217.8993
ARG_OF_PERICENTER = 286.6816
MEAN_ANOMALY   = 7.2092

EPHEMERIS_TYPE = 0
CLASSIFICATION_TYPE = U
NORAD_CAT_ID   = 67834
ELEMENT_SET_NO = 999
REV_AT_EPOCH   = 609
BSTAR          = -.10741577E-1
MEAN_MOTION_DOT = -.592493E-2
MEAN_MOTION_DDOT = 0

CCSDS_OMM_VERS = 2.0
CREATION_DATE  = 
ORIGINATOR     = 

OBJECT_NAME    = STARLINK-36657
OBJECT_ID      = 2026-033Q
CENTER_NAME    = EARTH
REF_FRAME      = TEME
TIME_SYSTEM    = UTC
MEAN_ELEMENT_THEORY = SGP/SGP4

EPOCH          = 2026-03-18T14:00:01.000224
MEAN_MOTION    = 15.55458453
ECCENTRICITY   = .00016986
INCLINATION    = 43.0002
RA_OF_ASC_NODE = 217.6381
ARG_OF_PERICENTER = 276.3787
MEAN_ANOMALY   = 122.7775

EPHEMERIS_TYPE = 0
CLASSIFICATION_TYPE = U
NORAD_CAT_ID   = 67835
ELEMENT_SET_NO = 999
REV_AT_EPOCH   = 609
BSTAR          = -.31147304E-1
MEAN_MOTION_DOT = -.1921784E-1
MEAN_MOTION_DDOT = 0

CCSDS_OMM_VERS = 2.0
CREATION_DATE  = 
ORIGINATOR     = 

OBJECT_NAME    = STARLINK-36650
OBJECT_ID      = 2026-033R
CENTER_NAME    = EARTH
REF_FRAME      = TEME
TIME_SYSTEM    = UTC
MEAN_ELEMENT_THEORY = SGP/SGP4

EPOCH          = 2026-03-18T14:00:01.000224
MEAN_MOTION    = 15.50561547
ECCENTRICITY   = .00009568
INCLINATION    = 42.9999
RA_OF_ASC_NODE = 218.1676
ARG_OF_PERICENTER = 277.1146
MEAN_ANOMALY   = 267.9755

EPHEMERIS_TYPE = 0
CLASSIFICATION_TYPE = U
NORAD_CAT_ID   = 67836
ELEMENT_SET_NO = 999
REV_AT_EPOCH   = 609
BSTAR          = .85642656E-3
MEAN_MOTION_DOT = .50192E-3
MEAN_MOTION_DDOT = 0

CCSDS_OMM_VERS = 2.0
CREATION_DATE  = 
ORIGINATOR     = 

OBJECT_NAME    = STARLINK-36649
OBJECT_ID      = 2026-033S
CENTER_NAME    = EARTH
REF_FRAME      = TEME
TIME_SYSTEM    = UTC
MEAN_ELEMENT_THEORY = SGP/SGP4

EPOCH          = 2026-03-18T14:00:01.000224
MEAN_MOTION    = 15.50496731
ECCENTRICITY   = .00009388
INCLINATION    = 42.9997
RA_OF_ASC_NODE = 217.8937
ARG_OF_PERICENTER = 280.1294
MEAN_ANOMALY   = 15.2630

EPHEMERIS_TYPE = 0
CLASSIFICATION_TYPE = U
NORAD_CAT_ID   = 67837
ELEMENT_SET_NO = 999
REV_AT_EPOCH   = 609
BSTAR          = .6986362E-3
MEAN_MOTION_DOT = .40737E-3
MEAN_MOTION_DDOT = 0

CCSDS_OMM_VERS = 2.0
CREATION_DATE  = 
ORIGINATOR     = 

OBJECT_NAME    = STARLINK-36654
OBJECT_ID      = 2026-033T
CENTER_NAME    = EARTH
REF_FRAME      = TEME
TIME_SYSTEM    = UTC
MEAN_ELEMENT_THEORY = SGP/SGP4

EPOCH          = 2026-03-18T14:00:01.000224
MEAN_MOTION    = 15.50534692
ECCENTRICITY   = .0001545
INCLINATION    = 43.0002
RA_OF_ASC_NODE = 218.0170
ARG_OF_PERICENTER = 254.4678
MEAN_ANOMALY   = 350.6031

EPHEMERIS_TYPE = 0
CLASSIFICATION_TYPE = U
NORAD_CAT_ID   = 67838
ELEMENT_SET_NO = 999
REV_AT_EPOCH   = 609
BSTAR          = .61216341E-3
MEAN_MOTION_DOT = .35678E-3
MEAN_MOTION_DDOT = 0

CCSDS_OMM_VERS = 2.0
CREATION_DATE  = 
ORIGINATOR     = 

OBJECT_NAME    = STARLINK-36652
OBJECT_ID      = 2026-033U
CENTER_NAME    = EARTH
REF_FRAME      = TEME
TIME_SYSTEM    = UTC
MEAN_ELEMENT_THEORY = SGP/SGP4

EPOCH          = 2026-03-18T14:00:01.000224
MEAN_MOTION    = 15.50543829
ECCENTRICITY   = .00015567
INCLINATION    = 42.9999
RA_OF_ASC_NODE = 218.1210
ARG_OF_PERICENTER = 279.6787
MEAN_ANOMALY   = 283.6004

EPHEMERIS_TYPE = 0
CLASSIFICATION_TYPE = U
NORAD_CAT_ID   = 67839
ELEMENT_SET_NO = 999
REV_AT_EPOCH   = 609
BSTAR          = .472995E-3
MEAN_MOTION_DOT = .27469E-3
MEAN_MOTION_DDOT = 0

CCSDS_OMM_VERS = 2.0
CREATION_DATE  = 
ORIGINATOR     = 

OBJECT_NAME    = STARLINK-36651
OBJECT_ID      = 2026-033V
CENTER_NAME    = EARTH
REF_FRAME      = TEME
TIME_SYSTEM    = UTC
MEAN_ELEMENT_THEORY = SGP/SGP4

EPOCH          = 2026-03-18T14:00:01.000224
MEAN_MOTION    = 15.50535060
ECCENTRICITY   = .00024112
INCLINATION    = 43.0000
RA_OF_ASC_NODE = 218.0080
ARG_OF_PERICENTER = 286.6000
MEAN_ANOMALY   = 322.1840

EPHEMERIS_TYPE = 0
CLASSIFICATION_TYPE = U
NORAD_CAT_ID   = 67840
ELEMENT_SET_NO = 999
REV_AT_EPOCH   = 609
BSTAR          = .54398965E-3
MEAN_MOTION_DOT = .31652E-3
MEAN_MOTION_DDOT = 0

CCSDS_OMM_VERS = 2.0
CREATION_DATE  = 
ORIGINATOR     = 

OBJECT_NAME    = STARLINK-36656
OBJECT_ID      = 2026-033W
CENTER_NAME    = EARTH
REF_FRAME      = TEME
TIME_SYSTEM    = UTC
MEAN_ELEMENT_THEORY = SGP/SGP4

EPOCH          = 2026-03-18T14:00:01.000224
MEAN_MOTION    = 15.50516925
ECCENTRICITY   = .00017227
INCLINATION    = 42.9999
RA_OF_ASC_NODE = 217.9240
ARG_OF_PERICENTER = 296.5300
MEAN_ANOMALY   = 346.3594

EPHEMERIS_TYPE = 0
CLASSIFICATION_TYPE = U
NORAD_CAT_ID   = 67841
ELEMENT_SET_NO = 999
REV_AT_EPOCH   = 609
BSTAR          = .4774188E-3
MEAN_MOTION_DOT = .27704E-3
MEAN_MOTION_DDOT = 0

CCSDS_OMM_VERS = 2.0
CREATION_DATE  = 
ORIGINATOR     = 

OBJECT_NAME    = STARLINK-36653
OBJECT_ID      = 2026-033X
CENTER_NAME    = EARTH
REF_FRAME      = TEME
TIME_SYSTEM    = UTC
MEAN_ELEMENT_THEORY = SGP/SGP4

EPOCH          = 2026-03-18T14:00:01.000224
MEAN_MOTION    = 15.50547151
ECCENTRICITY   = .00015735
INCLINATION    = 43.0001
RA_OF_ASC_NODE = 217.9804
ARG_OF_PERICENTER = 266.8932
MEAN_ANOMALY   = 353.0375

EPHEMERIS_TYPE = 0
CLASSIFICATION_TYPE = U
NORAD_CAT_ID   = 67842
ELEMENT_SET_NO = 999
REV_AT_EPOCH   = 609
BSTAR          = .6363223E-3
MEAN_MOTION_DOT = .37123E-3
MEAN_MOTION_DDOT = 0

CCSDS_OMM_VERS = 2.0
CREATION_DATE  = 
ORIGINATOR     = 

OBJECT_NAME    = STARLINK-36589
OBJECT_ID      = 2026-033Y
CENTER_NAME    = EARTH
REF_FRAME      = TEME
TIME_SYSTEM    = UTC
MEAN_ELEMENT_THEORY = SGP/SGP4

EPOCH          = 2026-03-18T14:00:01.000224
MEAN_MOTION    = 15.50540178
ECCENTRICITY   = .0001869
INCLINATION    = 42.9998
RA_OF_ASC_NODE = 217.8993
ARG_OF_PERICENTER = 271.3893
MEAN_ANOMALY   = 21.1766

EPHEMERIS_TYPE = 0
CLASSIFICATION_TYPE = U
NORAD_CAT_ID   = 67843
ELEMENT_SET_NO = 999
REV_AT_EPOCH   = 609
BSTAR          = .47676684E-3
MEAN_MOTION_DOT = .27689E-3
MEAN_MOTION_DDOT = 0

CCSDS_OMM_VERS = 2.0
CREATION_DATE  = 
ORIGINATOR     = 

OBJECT_NAME    = STARLINK-36598
OBJECT_ID      = 2026-033Z
CENTER_NAME    = EARTH
REF_FRAME      = TEME
TIME_SYSTEM    = UTC
MEAN_ELEMENT_THEORY = SGP/SGP4

EPOCH          = 2026-03-18T14:00:01.000224
MEAN_MOTION    = 15.50580244
ECCENTRICITY   = .00019023
INCLINATION    = 42.9999
RA_OF_ASC_NODE = 218.1048
ARG_OF_PERICENTER = 312.1952
MEAN_ANOMALY   = 257.3639

EPHEMERIS_TYPE = 0
CLASSIFICATION_TYPE = U
NORAD_CAT_ID   = 67844
ELEMENT_SET_NO = 999
REV_AT_EPOCH   = 609
BSTAR          = .61686075E-3
MEAN_MOTION_DOT = .36015E-3
MEAN_MOTION_DDOT = 0

